start=new Date('2022-08-30T00:00:00.000Z').valueOf();
sats=[{"PERIOD":"95.437","COUNTRY_CODE":"US","TIME_SYSTEM":"UTC","CLASSIFICATION_TYPE":"U","APOAPSIS":"540.790","RA_OF_ASC_NODE":"120.1501","LAUNCH_DATE":"2022-04-21","EPOCH":"2022-08-29T22:00:00.999936","MEAN_MOTION_DDOT":"0.0000000000000","NORAD_CAT_ID":"52300","OBJECT_TYPE":"PAYLOAD","PERIAPSIS":"538.658","SEMIMAJOR_AXIS":"6917.859","MEAN_MOTION_DOT":"-0.00013848","REV_AT_EPOCH":"130","BSTAR":"-0.00085347000000","OBJECT_ID":"2022-041AR","ECCENTRICITY":"0.00015410","GP_ID":"211289768","TLE_LINE2":"2 52300  53.2177 120.1501 0001541  62.0342 113.5045 15.08846907  1306","OBJECT_NAME":"STARLINK-3769","ARG_OF_PERICENTER":"62.0342","MEAN_ANOMALY":"113.5045","RCS_SIZE":"LARGE","INCLINATION":"53.2177","FILE":"3551093","SITE":"AFETR","MEAN_MOTION":"15.08846907","DECAY_DATE":null,"TLE_LINE1":"1 52300U 22041AR  22241.91667824 -.00013848  00000-0 -85347-3 0  9999","EPHEMERIS_TYPE":"0","CENTER_NAME":"EARTH","MEAN_ELEMENT_THEORY":"SGP4","REF_FRAME":"TEME","ELEMENT_SET_NO":"999"},{"ECCENTRICITY":"0.00015870","GP_ID":"211290057","TLE_LINE2":"2 52301  53.2178 120.1491 0001587  66.7720   8.7654 15.08834064  1309","RCS_SIZE":"LARGE","MEAN_ANOMALY":"8.7654","ARG_OF_PERICENTER":"66.7720","OBJECT_NAME":"STARLINK-3768","INCLINATION":"53.2178","FILE":"3551093","EPHEMERIS_TYPE":"0","CENTER_NAME":"EARTH","ELEMENT_SET_NO":"999","MEAN_ELEMENT_THEORY":"SGP4","REF_FRAME":"TEME","SITE":"AFETR","TLE_LINE1":"1 52301U 22041AS  22241.91667824 -.00018145  00000-0 -11250-2 0  9996","MEAN_MOTION":"15.08834064","DECAY_DATE":null,"TIME_SYSTEM":"UTC","PERIOD":"95.438","COUNTRY_CODE":"US","APOAPSIS":"540.861","CLASSIFICATION_TYPE":"U","NORAD_CAT_ID":"52301","OBJECT_TYPE":"PAYLOAD","LAUNCH_DATE":"2022-04-21","RA_OF_ASC_NODE":"120.1491","EPOCH":"2022-08-29T22:00:00.999936","MEAN_MOTION_DDOT":"0.0000000000000","OBJECT_ID":"2022-041AS","SEMIMAJOR_AXIS":"6917.899","PERIAPSIS":"538.666","BSTAR":"-0.00112500000000","REV_AT_EPOCH":"130","MEAN_MOTION_DOT":"-0.00018145"},{"PERIOD":"95.541","COUNTRY_CODE":"US","TIME_SYSTEM":"UTC","CLASSIFICATION_TYPE":"U","APOAPSIS":"546.045","RA_OF_ASC_NODE":"109.8426","LAUNCH_DATE":"2022-04-21","EPOCH":"2022-08-29T22:00:00.999936","MEAN_MOTION_DDOT":"0.0000000000000","NORAD_CAT_ID":"52302","OBJECT_TYPE":"PAYLOAD","SEMIMAJOR_AXIS":"6922.893","PERIAPSIS":"543.471","BSTAR":"-0.00080008000000","REV_AT_EPOCH":"130","MEAN_MOTION_DOT":"-0.00012440","OBJECT_ID":"2022-041AT","ECCENTRICITY":"0.00018590","GP_ID":"211289496","TLE_LINE2":"2 52302  53.2143 109.8426 0001859  60.1345 334.9631 15.07201467  1300","ARG_OF_PERICENTER":"60.1345","MEAN_ANOMALY":"334.9631","OBJECT_NAME":"STARLINK-3564","RCS_SIZE":"LARGE","INCLINATION":"53.2143","FILE":"3551093","SITE":"AFETR","TLE_LINE1":"1 52302U 22041AT  22241.91667824 -.00012440  00000-0 -80008-3 0  9997","MEAN_MOTION":"15.07201467","DECAY_DATE":null,"EPHEMERIS_TYPE":"0","CENTER_NAME":"EARTH","ELEMENT_SET_NO":"999","REF_FRAME":"TEME","MEAN_ELEMENT_THEORY":"SGP4"},{"EPOCH":"2022-08-29T22:00:00.999936","LAUNCH_DATE":"2022-04-21","RA_OF_ASC_NODE":"120.1469","MEAN_MOTION_DDOT":"0.0000000000000","NORAD_CAT_ID":"52303","OBJECT_TYPE":"PAYLOAD","PERIAPSIS":"538.569","SEMIMAJOR_AXIS":"6917.890","MEAN_MOTION_DOT":"-0.00014421","REV_AT_EPOCH":"130","BSTAR":"-0.00088987000000","OBJECT_ID":"2022-041AU","PERIOD":"95.438","COUNTRY_CODE":"US","TIME_SYSTEM":"UTC","CLASSIFICATION_TYPE":"U","APOAPSIS":"540.942","INCLINATION":"53.2168","FILE":"3551093","SITE":"AFETR","MEAN_MOTION":"15.08836703","DECAY_DATE":null,"TLE_LINE1":"1 52303U 22041AU  22241.91667824 -.00014421  00000-0 -88987-3 0  9993","EPHEMERIS_TYPE":"0","CENTER_NAME":"EARTH","MEAN_ELEMENT_THEORY":"SGP4","REF_FRAME":"TEME","ELEMENT_SET_NO":"999","ECCENTRICITY":"0.00017150","GP_ID":"211289625","TLE_LINE2":"2 52303  53.2168 120.1469 0001715  58.8479  96.6950 15.08836703  1308","OBJECT_NAME":"STARLINK-3742","MEAN_ANOMALY":"96.6950","ARG_OF_PERICENTER":"58.8479","RCS_SIZE":"LARGE"},{"REF_FRAME":"TEME","MEAN_ELEMENT_THEORY":"SGP4","ELEMENT_SET_NO":"999","EPHEMERIS_TYPE":"0","CENTER_NAME":"EARTH","DECAY_DATE":null,"MEAN_MOTION":"15.08820010","TLE_LINE1":"1 52304U 22041AV  22241.91667824 -.00007048  00000-0 -42539-3 0  9994","SITE":"AFETR","FILE":"3551093","INCLINATION":"53.2152","RCS_SIZE":"LARGE","OBJECT_NAME":"STARLINK-3744","ARG_OF_PERICENTER":"60.5675","MEAN_ANOMALY":"189.9718","TLE_LINE2":"2 52304  53.2152 110.1601 0001742  60.5675 189.9718 15.08820010  1309","ECCENTRICITY":"0.00017420","GP_ID":"211289353","OBJECT_ID":"2022-041AV","MEAN_MOTION_DOT":"-0.00007048","REV_AT_EPOCH":"130","BSTAR":"-0.00042539000000","PERIAPSIS":"538.601","SEMIMAJOR_AXIS":"6917.941","OBJECT_TYPE":"PAYLOAD","NORAD_CAT_ID":"52304","MEAN_MOTION_DDOT":"0.0000000000000","RA_OF_ASC_NODE":"110.1601","LAUNCH_DATE":"2022-04-21","EPOCH":"2022-08-29T22:00:00.999936","APOAPSIS":"541.012","CLASSIFICATION_TYPE":"U","TIME_SYSTEM":"UTC","COUNTRY_CODE":"US","PERIOD":"95.439"},{"TIME_SYSTEM":"UTC","PERIOD":"95.437","COUNTRY_CODE":"US","APOAPSIS":"540.884","CLASSIFICATION_TYPE":"U","OBJECT_TYPE":"PAYLOAD","NORAD_CAT_ID":"52305","RA_OF_ASC_NODE":"120.1538","LAUNCH_DATE":"2022-04-21","EPOCH":"2022-08-29T22:00:00.999936","MEAN_MOTION_DDOT":"0.0000000000000","OBJECT_ID":"2022-041AW","PERIAPSIS":"538.573","SEMIMAJOR_AXIS":"6917.863","MEAN_MOTION_DOT":"-0.00011842","REV_AT_EPOCH":"130","BSTAR":"-0.00072701000000","GP_ID":"211290215","ECCENTRICITY":"0.00016700","TLE_LINE2":"2 52305  53.2185 120.1538 0001670  68.3189 122.0366 15.08845572  1309","RCS_SIZE":"LARGE","OBJECT_NAME":"STARLINK-3724","ARG_OF_PERICENTER":"68.3189","MEAN_ANOMALY":"122.0366","INCLINATION":"53.2185","FILE":"3551093","EPHEMERIS_TYPE":"0","CENTER_NAME":"EARTH","MEAN_ELEMENT_THEORY":"SGP4","REF_FRAME":"TEME","ELEMENT_SET_NO":"999","SITE":"AFETR","DECAY_DATE":null,"MEAN_MOTION":"15.08845572","TLE_LINE1":"1 52305U 22041AW  22241.91667824 -.00011842  00000-0 -72701-3 0  9996"},{"INCLINATION":"53.2149","FILE":"3551093","SITE":"AFETR","MEAN_MOTION":"15.07189608","DECAY_DATE":null,"TLE_LINE1":"1 52306U 22041AX  22241.91667824 -.00010544  00000-0 -67530-3 0  9999","CENTER_NAME":"EARTH","EPHEMERIS_TYPE":"0","REF_FRAME":"TEME","MEAN_ELEMENT_THEORY":"SGP4","ELEMENT_SET_NO":"999","ECCENTRICITY":"0.00022830","GP_ID":"211289913","TLE_LINE2":"2 52306  53.2149 110.0575 0002283  56.8416 265.5724 15.07189608  1306","OBJECT_NAME":"STARLINK-3747","MEAN_ANOMALY":"265.5724","ARG_OF_PERICENTER":"56.8416","RCS_SIZE":"LARGE","RA_OF_ASC_NODE":"110.0575","LAUNCH_DATE":"2022-04-21","EPOCH":"2022-08-29T22:00:00.999936","MEAN_MOTION_DDOT":"0.0000000000000","NORAD_CAT_ID":"52306","OBJECT_TYPE":"PAYLOAD","PERIAPSIS":"543.214","SEMIMAJOR_AXIS":"6922.930","MEAN_MOTION_DOT":"-0.00010544","REV_AT_EPOCH":"130","BSTAR":"-0.00067530000000","OBJECT_ID":"2022-041AX","PERIOD":"95.542","COUNTRY_CODE":"US","TIME_SYSTEM":"UTC","CLASSIFICATION_TYPE":"U","APOAPSIS":"546.375"},{"TIME_SYSTEM":"UTC","PERIOD":"95.438","COUNTRY_CODE":"US","APOAPSIS":"540.898","CLASSIFICATION_TYPE":"U","NORAD_CAT_ID":"52307","OBJECT_TYPE":"PAYLOAD","EPOCH":"2022-08-29T22:00:00.999936","LAUNCH_DATE":"2022-04-21","RA_OF_ASC_NODE":"120.1550","MEAN_MOTION_DDOT":"0.0000000000000","OBJECT_ID":"2022-041AY","SEMIMAJOR_AXIS":"6917.897","PERIAPSIS":"538.626","BSTAR":"-0.00073606000000","REV_AT_EPOCH":"130","MEAN_MOTION_DOT":"-0.00011982","GP_ID":"211289209","ECCENTRICITY":"0.00016420","TLE_LINE2":"2 52307  53.2190 120.1550 0001642  59.2992 136.2460 15.08834549  1305","RCS_SIZE":"LARGE","ARG_OF_PERICENTER":"59.2992","MEAN_ANOMALY":"136.2460","OBJECT_NAME":"STARLINK-3755","INCLINATION":"53.2190","FILE":"3551093","EPHEMERIS_TYPE":"0","CENTER_NAME":"EARTH","ELEMENT_SET_NO":"999","MEAN_ELEMENT_THEORY":"SGP4","REF_FRAME":"TEME","SITE":"AFETR","TLE_LINE1":"1 52307U 22041AY  22241.91667824 -.00011982  00000-0 -73606-3 0  9998","MEAN_MOTION":"15.08834549","DECAY_DATE":null},{"CLASSIFICATION_TYPE":"U","APOAPSIS":"541.000","PERIOD":"95.437","COUNTRY_CODE":"US","TIME_SYSTEM":"UTC","SEMIMAJOR_AXIS":"6917.831","PERIAPSIS":"538.391","REV_AT_EPOCH":"130","BSTAR":"-0.00350140000000","MEAN_MOTION_DOT":"-0.00055609","OBJECT_ID":"2022-041AZ","RA_OF_ASC_NODE":"110.1564","LAUNCH_DATE":"2022-04-21","EPOCH":"2022-08-29T22:00:00.999936","MEAN_MOTION_DDOT":"0.0000000000000","NORAD_CAT_ID":"52308","OBJECT_TYPE":"PAYLOAD","ARG_OF_PERICENTER":"58.8828","MEAN_ANOMALY":"251.6774","OBJECT_NAME":"STARLINK-3745","RCS_SIZE":"LARGE","ECCENTRICITY":"0.00018860","GP_ID":"211289769","TLE_LINE2":"2 52308  53.2147 110.1564 0001886  58.8828 251.6774 15.08856229  1304","SITE":"AFETR","TLE_LINE1":"1 52308U 22041AZ  22241.91667824 -.00055609  00000-0 -35014-2 0  9993","DECAY_DATE":null,"MEAN_MOTION":"15.08856229","EPHEMERIS_TYPE":"0","CENTER_NAME":"EARTH","ELEMENT_SET_NO":"999","MEAN_ELEMENT_THEORY":"SGP4","REF_FRAME":"TEME","INCLINATION":"53.2147","FILE":"3551093"},{"INCLINATION":"53.2157","FILE":"3551093","SITE":"AFETR","MEAN_MOTION":"15.08831270","DECAY_DATE":null,"TLE_LINE1":"1 52309U 22041BA  22241.91667824 -.00008471  00000-0 -51488-3 0  9993","CENTER_NAME":"EARTH","EPHEMERIS_TYPE":"0","REF_FRAME":"TEME","MEAN_ELEMENT_THEORY":"SGP4","ELEMENT_SET_NO":"999","GP_ID":"211290058","ECCENTRICITY":"0.00018620","TLE_LINE2":"2 52309  53.2157 110.1592 0001862  60.2710 230.3139 15.08831270  1306","OBJECT_NAME":"STARLINK-3756","MEAN_ANOMALY":"230.3139","ARG_OF_PERICENTER":"60.2710","RCS_SIZE":"LARGE","RA_OF_ASC_NODE":"110.1592","LAUNCH_DATE":"2022-04-21","EPOCH":"2022-08-29T22:00:00.999936","MEAN_MOTION_DDOT":"0.0000000000000","OBJECT_TYPE":"PAYLOAD","NORAD_CAT_ID":"52309","PERIAPSIS":"538.484","SEMIMAJOR_AXIS":"6917.907","MEAN_MOTION_DOT":"-0.00008471","REV_AT_EPOCH":"130","BSTAR":"-0.00051488000000","OBJECT_ID":"2022-041BA","PERIOD":"95.438","COUNTRY_CODE":"US","TIME_SYSTEM":"UTC","CLASSIFICATION_TYPE":"U","APOAPSIS":"541.060"}];
